{"type": "FeatureCollection", "features": [ {"type": "Feature", "properties": {"norad_id": 35890, "name": "COSMOS 2251 DEB", "group": "cosmos-2251-debris", "lat": -5.329264331047179, "lon": -136.86822433704668, "alt_km": 666.3504979490899, "timestamp": "2025-12-22T04:03:39.565266+00:00", "meta": {"OBJECT_NAME": "COSMOS 2251 DEB", "OBJECT_ID": "1993-036AUD", "EPOCH": "2025-12-16T22:53:46.078656", "MEAN_MOTION": 14.57543512, "ECCENTRICITY": 0.00539437, "INCLINATION": 73.9365, "RA_OF_ASC_NODE": 234.6414, "ARG_OF_PERICENTER": 358.5125, "MEAN_ANOMALY": 1.5869, "EPHEMERIS_TYPE": 0, "CLASSIFICATION_TYPE": "U", "NORAD_CAT_ID": 35890, "ELEMENT_SET_NO": 999, "REV_AT_EPOCH": 65212, "BSTAR": 0.0012168345, "MEAN_MOTION_DOT": 5.621e-05, "MEAN_MOTION_DDOT": 0}, "tle": {"line1": "1 35890U 93036AUD 25350.95400554  .00005621  00000+0  12168-2 0  9996", "line2": "2 35890  73.9365 234.6414 0053943 358.5125   1.5869 14.57543512652129"}}, "geometry": {"type": "Point", "coordinates": [-136.86822433704668, -5.329264331047179]}}, {"type": "Feature", "properties": {"norad_id": 35891, "name": "COSMOS 2251 DEB", "group": "cosmos-2251-debris", "lat": -43.88466288373935, "lon": 57.60302391983586, "alt_km": 480.6609730628634, "timestamp": "2025-12-22T04:03:39.565277+00:00", "meta": {"OBJECT_NAME": "COSMOS 2251 DEB", "OBJECT_ID": "1993-036AUE", "EPOCH": "2025-12-19T23:02:38.567040", "MEAN_MOTION": 15.33900235, "ECCENTRICITY": 0.0042412, "INCLINATION": 73.9897, "RA_OF_ASC_NODE": 78.3766, "ARG_OF_PERICENTER": 207.7893, "MEAN_ANOMALY": 152.1046, "EPHEMERIS_TYPE": 0, "CLASSIFICATION_TYPE": "U", "NORAD_CAT_ID": 35891, "ELEMENT_SET_NO": 999, "REV_AT_EPOCH": 67331, "BSTAR": 0.0008769, "MEAN_MOTION_DOT": 0.00029674, "MEAN_MOTION_DDOT": 0}, "tle": {"line1": "1 35891U 93036AUE 25353.96016860  .00029674  00000+0  87690-3 0  9991", "line2": "2 35891  73.9897  78.3766 0042412 207.7893 152.1046 15.33900235673317"}}, "geometry": {"type": "Point", "coordinates": [57.60302391983586, -43.88466288373935]}}, {"type": "Feature", "properties": {"norad_id": 35895, "name": "COSMOS 2251 DEB", "group": "cosmos-2251-debris", "lat": 65.51389229405271, "lon": 112.41197462901516, "alt_km": 771.7282596999612, "timestamp": "2025-12-22T04:03:39.565287+00:00", "meta": {"OBJECT_NAME": "COSMOS 2251 DEB", "OBJECT_ID": "1993-036AUJ", "EPOCH": "2025-12-20T05:18:32.719392", "MEAN_MOTION": 14.01557935, "ECCENTRICITY": 0.0199682, "INCLINATION": 74.0503, "RA_OF_ASC_NODE": 334.6863, "ARG_OF_PERICENTER": 71.097, "MEAN_ANOMALY": 291.1695, "EPHEMERIS_TYPE": 0, "CLASSIFICATION_TYPE": "U", "NORAD_CAT_ID": 35895, "ELEMENT_SET_NO": 999, "REV_AT_EPOCH": 59117, "BSTAR": 0.0011304, "MEAN_MOTION_DOT": 2.013e-05, "MEAN_MOTION_DDOT": 0}, "tle": {"line1": "1 35895U 93036AUJ 25354.22121203  .00002013  00000+0  11304-2 0  9999", "line2": "2 35895  74.0503 334.6863 0199682  71.0970 291.1695 14.01557935591179"}}, "geometry": {"type": "Point", "coordinates": [112.41197462901516, 65.51389229405271]}}, {"type": "Feature", "properties": {"norad_id": 35898, "name": "COSMOS 2251 DEB", "group": "cosmos-2251-debris", "lat": -67.56047428108471, "lon": 142.4369935450501, "alt_km": 643.016455529073, "timestamp": "2025-12-22T04:03:39.565297+00:00", "meta": {"OBJECT_NAME": "COSMOS 2251 DEB", "OBJECT_ID": "1993-036AUM", "EPOCH": "2025-12-17T02:32:30.687072", "MEAN_MOTION": 14.94779467, "ECCENTRICITY": 0.00792454, "INCLINATION": 73.9918, "RA_OF_ASC_NODE": 288.6268, "ARG_OF_PERICENTER": 70.8936, "MEAN_ANOMALY": 307.548, "EPHEMERIS_TYPE": 0, "CLASSIFICATION_TYPE": "U", "NORAD_CAT_ID": 35898, "ELEMENT_SET_NO": 999, "REV_AT_EPOCH": 66875, "BSTAR": 0.00065982938, "MEAN_MOTION_DOT": 7.606e-05, "MEAN_MOTION_DDOT": 0}, "tle": {"line1": "1 35898U 93036AUM 25351.10591073  .00007606  00000+0  65983-3 0  9998", "line2": "2 35898  73.9918 288.6268 0079245  70.8936 307.5480 14.94779467668759"}}, "geometry": {"type": "Point", "coordinates": [142.4369935450501, -67.56047428108471]}}, {"type": "Feature", "properties": {"norad_id": 35901, "name": "COSMOS 2251 DEB", "group": "cosmos-2251-debris", "lat": -30.577213904702276, "lon": -6.303283473580699, "alt_km": 543.2018443914394, "timestamp": "2025-12-22T04:03:39.565307+00:00", "meta": {"OBJECT_NAME": "COSMOS 2251 DEB", "OBJECT_ID": "1993-036AUQ", "EPOCH": "2025-12-21T07:33:55.014048", "MEAN_MOTION": 15.07789315, "ECCENTRICITY": 0.0007598, "INCLINATION": 74.0113, "RA_OF_ASC_NODE": 5.2093, "ARG_OF_PERICENTER": 337.8636, "MEAN_ANOMALY": 36.6976, "EPHEMERIS_TYPE": 0, "CLASSIFICATION_TYPE": "U", "NORAD_CAT_ID": 35901, "ELEMENT_SET_NO": 999, "REV_AT_EPOCH": 86256, "BSTAR": 0.0027352, "MEAN_MOTION_DOT": 0.00042089, "MEAN_MOTION_DDOT": 0}, "tle": {"line1": "1 35901U 93036AUQ 25355.31522007  .00042089  00000+0  27352-2 0  9992", "line2": "2 35901  74.0113   5.2093 0007598 337.8636  36.6976 15.07789315862560"}}, "geometry": {"type": "Point", "coordinates": [-6.303283473580699, -30.577213904702276]}}, {"type": "Feature", "properties": {"norad_id": 35902, "name": "COSMOS 2251 DEB", "group": "cosmos-2251-debris", "lat": 41.73887645187178, "lon": -127.68196652210506, "alt_km": 776.7163711819785, "timestamp": "2025-12-22T04:03:39.565317+00:00", "meta": {"OBJECT_NAME": "COSMOS 2251 DEB", "OBJECT_ID": "1993-036AUR", "EPOCH": "2025-12-19T15:17:09.843072", "MEAN_MOTION": 14.26937143, "ECCENTRICITY": 0.0102282, "INCLINATION": 73.9823, "RA_OF_ASC_NODE": 222.0626, "ARG_OF_PERICENTER": 335.5486, "MEAN_ANOMALY": 24.0827, "EPHEMERIS_TYPE": 0, "CLASSIFICATION_TYPE": "U", "NORAD_CAT_ID": 35902, "ELEMENT_SET_NO": 999, "REV_AT_EPOCH": 61228, "BSTAR": 0.00057286, "MEAN_MOTION_DOT": 1.445e-05, "MEAN_MOTION_DDOT": 0}, "tle": {"line1": "1 35902U 93036AUR 25353.63691948  .00001445  00000+0  57286-3 0  9998", "line2": "2 35902  73.9823 222.0626 0102282 335.5486  24.0827 14.26937143612284"}}, "geometry": {"type": "Point", "coordinates": [-127.68196652210506, 41.73887645187178]}}, {"type": "Feature", "properties": {"norad_id": 35905, "name": "COSMOS 2251 DEB", "group": "cosmos-2251-debris", "lat": -69.63360697272901, "lon": 141.18896674394492, "alt_km": 515.1459406489867, "timestamp": "2025-12-22T04:03:39.565327+00:00", "meta": {"OBJECT_NAME": "COSMOS 2251 DEB", "OBJECT_ID": "1993-036AUU", "EPOCH": "2025-12-19T20:20:40.701984", "MEAN_MOTION": 14.99109626, "ECCENTRICITY": 0.00907234, "INCLINATION": 74.0303, "RA_OF_ASC_NODE": 196.3814, "ARG_OF_PERICENTER": 274.7905, "MEAN_ANOMALY": 84.2926, "EPHEMERIS_TYPE": 0, "CLASSIFICATION_TYPE": "U", "NORAD_CAT_ID": 35905, "ELEMENT_SET_NO": 999, "REV_AT_EPOCH": 88689, "BSTAR": 0.00038534717, "MEAN_MOTION_DOT": 5.062e-05, "MEAN_MOTION_DDOT": 0}, "tle": {"line1": "1 35905U 93036AUU 25353.84769331  .00005062  00000+0  38535-3 0  9991", "line2": "2 35905  74.0303 196.3814 0090723 274.7905  84.2926 14.99109626886895"}}, "geometry": {"type": "Point", "coordinates": [141.18896674394492, -69.63360697272901]}}, {"type": "Feature", "properties": {"norad_id": 35959, "name": "COSMOS 2251 DEB", "group": "cosmos-2251-debris", "lat": 11.401900823945063, "lon": -61.88761130304699, "alt_km": 763.2349303804649, "timestamp": "2025-12-22T04:03:39.565337+00:00", "meta": {"OBJECT_NAME": "COSMOS 2251 DEB", "OBJECT_ID": "1993-036AUZ", "EPOCH": "2025-12-21T06:14:31.914240", "MEAN_MOTION": 14.34141549, "ECCENTRICITY": 0.00219292, "INCLINATION": 74.0332, "RA_OF_ASC_NODE": 296.4659, "ARG_OF_PERICENTER": 14.6064, "MEAN_ANOMALY": 345.5716, "EPHEMERIS_TYPE": 0, "CLASSIFICATION_TYPE": "U", "NORAD_CAT_ID": 35959, "ELEMENT_SET_NO": 999, "REV_AT_EPOCH": 85050, "BSTAR": 9.9901751e-05, "MEAN_MOTION_DOT": 2.54e-06, "MEAN_MOTION_DDOT": 0}, "tle": {"line1": "1 35959U 93036AUZ 25355.26009160  .00000254  00000+0  99902-4 0  9999", "line2": "2 35959  74.0332 296.4659 0021929  14.6064 345.5716 14.34141549850502"}}, "geometry": {"type": "Point", "coordinates": [-61.88761130304699, 11.401900823945063]}}, {"type": "Feature", "properties": {"norad_id": 35961, "name": "COSMOS 2251 DEB", "group": "cosmos-2251-debris", "lat": 44.68901400260652, "lon": -155.8299034432224, "alt_km": 825.4138956512752, "timestamp": "2025-12-22T04:03:39.565347+00:00", "meta": {"OBJECT_NAME": "COSMOS 2251 DEB", "OBJECT_ID": "1993-036AVB", "EPOCH": "2025-12-18T21:15:12.372768", "MEAN_MOTION": 14.05418101, "ECCENTRICITY": 0.01915239, "INCLINATION": 73.9239, "RA_OF_ASC_NODE": 193.3704, "ARG_OF_PERICENTER": 125.5075, "MEAN_ANOMALY": 236.4097, "EPHEMERIS_TYPE": 0, "CLASSIFICATION_TYPE": "U", "NORAD_CAT_ID": 35961, "ELEMENT_SET_NO": 999, "REV_AT_EPOCH": 62768, "BSTAR": 0.0011788636, "MEAN_MOTION_DOT": 2.232e-05, "MEAN_MOTION_DDOT": 0}, "tle": {"line1": "1 35961U 93036AVB 25352.88555987  .00002232  00000+0  11789-2 0  9993", "line2": "2 35961  73.9239 193.3704 0191523 125.5075 236.4097 14.05418101627687"}}, "geometry": {"type": "Point", "coordinates": [-155.8299034432224, 44.68901400260652]}}, {"type": "Feature", "properties": {"norad_id": 35979, "name": "COSMOS 2251 DEB", "group": "cosmos-2251-debris", "lat": 49.26238391468658, "lon": 20.488668352179864, "alt_km": 671.9918964845856, "timestamp": "2025-12-22T04:03:39.565357+00:00", "meta": {"OBJECT_NAME": "COSMOS 2251 DEB", "OBJECT_ID": "1993-036AVV", "EPOCH": "2025-12-19T21:49:20.667936", "MEAN_MOTION": 14.74720129, "ECCENTRICITY": 0.0059181, "INCLINATION": 74.0091, "RA_OF_ASC_NODE": 224.3569, "ARG_OF_PERICENTER": 354.8475, "MEAN_ANOMALY": 19.529, "EPHEMERIS_TYPE": 0, "CLASSIFICATION_TYPE": "U", "NORAD_CAT_ID": 35979, "ELEMENT_SET_NO": 999, "REV_AT_EPOCH": 88739, "BSTAR": 0.00048194, "MEAN_MOTION_DOT": 3.28e-05, "MEAN_MOTION_DDOT": 0}, "tle": {"line1": "1 35979U 93036AVV 25353.90926699  .00003280  00000+0  48194-3 0  9993", "line2": "2 35979  74.0091 224.3569 0059181 354.8475  19.5290 14.74720129887395"}}, "geometry": {"type": "Point", "coordinates": [20.488668352179864, 49.26238391468658]}}]}